[
  {
    "name": "ONEWEB-0578",
    "noradId": "56067",
    "line1": "1 56067U 23043X   26176.42923331  .00000083  00000+0  16977-3 0  9998",
    "line2": "2 56067  87.9250 242.3329 0002320  93.1986 266.9413 13.21826044159327"
  },
  {
    "name": "ONEWEB-0579",
    "noradId": "56068",
    "line1": "1 56068U 23043Y   26176.42082167  .00000069  00000+0  13564-3 0  9995",
    "line2": "2 56068  87.9258 242.3320 0001869 103.5671 256.5672 13.21827255159339"
  },
  {
    "name": "ONEWEB-0581",
    "noradId": "56069",
    "line1": "1 56069U 23043Z   26176.50993006  .00000077  00000+0  16875-3 0  9995",
    "line2": "2 56069  87.9091 227.1317 0001815  80.3287 279.8049 13.16593290160058"
  },
  {
    "name": "ONEWEB-0609",
    "noradId": "56070",
    "line1": "1 56070U 23043AA  26176.54767719  .00000008  00000+0 -12272-4 0  9994",
    "line2": "2 56070  87.9000 257.5462 0002054 101.3016 258.8346 13.15550145157535"
  },
  {
    "name": "ONEWEB-0613",
    "noradId": "56071",
    "line1": "1 56071U 23043AB  26176.46923984  .00000054  00000+0  10864-3 0  9998",
    "line2": "2 56071  87.9001 257.5741 0001886 107.3462 252.7875 13.15547557157522"
  },
  {
    "name": "ONEWEB-0630",
    "noradId": "56072",
    "line1": "1 56072U 23043AC  26176.46449998  .00000014  00000+0  26849-5 0  9995",
    "line2": "2 56072  87.9007 257.5470 0001903 106.1328 254.0012 13.15547264157518"
  },
  {
    "name": "ONEWEB-0632",
    "noradId": "56073",
    "line1": "1 56073U 23043AD  26176.45974769  .00000064  00000+0  13541-3 0  9992",
    "line2": "2 56073  87.9001 257.5655 0001882  95.8348 264.2997 13.15549073157515"
  },
  {
    "name": "ONEWEB-0633",
    "noradId": "56074",
    "line1": "1 56074U 23043AE  26176.45340824  .00000154  00000+0  37560-3 0  9999",
    "line2": "2 56074  87.9009 257.5429 0002030 112.4489 247.6857 13.15547713157497"
  },
  {
    "name": "ONEWEB-0634",
    "noradId": "56075",
    "line1": "1 56075U 23043AF  26176.51520735  .00000115  00000+0  27042-3 0  9999",
    "line2": "2 56075  87.8998 257.5702 0002319  99.7459 260.3933 13.15548836157496"
  },
  {
    "name": "ONEWEB-0635",
    "noradId": "56076",
    "line1": "1 56076U 23043AG  26176.51044424  .00000091  00000+0  20790-3 0  9992",
    "line2": "2 56076  87.9009 257.5344 0001841  92.9582 267.1759 13.15547017157529"
  },
  {
    "name": "ONEWEB-0636",
    "noradId": "56077",
    "line1": "1 56077U 23043AH  26176.19829209  .00000019  00000+0  15668-4 0  9998",
    "line2": "2 56077  87.9006 257.6025 0001899  93.0086 267.1262 13.15549800157462"
  },
  {
    "name": "ONEWEB-0637",
    "noradId": "56078",
    "line1": "1 56078U 23043AJ  26176.49619028 -.00000006  00000+0 -48850-4 0  9995",
    "line2": "2 56078  87.8999 257.5593 0002186  93.0979 267.0401 13.15549800157524"
  },
  {
    "name": "ONEWEB-0647",
    "noradId": "56079",
    "line1": "1 56079U 23043AK  26176.26327014 -.00000019  00000+0 -83849-4 0  9993",
    "line2": "2 56079  87.8998 257.6182 0001870  99.3687 260.7655 13.15549406157481"
  },
  {
    "name": "ONEWEB-0651",
    "noradId": "56080",
    "line1": "1 56080U 23043AL  26176.56274079 -.00000013  00000+0 -69370-4 0  9997",
    "line2": "2 56080  87.8998 257.5519 0002024  92.7776 267.3586 13.15549760158721"
  },
  {
    "name": "ONEWEB-0718",
    "noradId": "56081",
    "line1": "1 56081U 23043AM  26176.48192914 -.00000097  00000+0 -29307-3 0  9993",
    "line2": "2 56081  87.9004 257.5496 0002517 104.4362 255.7048 13.15546878157522"
  },
  {
    "name": "ONEWEB-0561",
    "noradId": "56710",
    "line1": "1 56710U 23068A   26176.53091520  .00000048  00000+0  86493-4 0  9990",
    "line2": "2 56710  87.9199 272.7807 0001652  95.0645 265.0677 13.20773935150605"
  },
  {
    "name": "ONEWEB-0668",
    "noradId": "56711",
    "line1": "1 56711U 23068B   26176.56059671  .00000029  00000+0  42421-4 0  9997",
    "line2": "2 56711  87.9089 227.1098 0002576  93.2178 266.9247 13.16594809152888"
  },
  {
    "name": "ONEWEB-0676",
    "noradId": "56712",
    "line1": "1 56712U 23068C   26176.41651671  .00000031  00000+0  48682-4 0  9998",
    "line2": "2 56712  87.9089 227.1445 0001883  88.2022 271.9325 13.16593226152781"
  },
  {
    "name": "ONEWEB-0677",
    "noradId": "56713",
    "line1": "1 56713U 23068D   26176.51913914  .00000084  00000+0  17469-3 0  9997",
    "line2": "2 56713  87.9195 272.7744 0002167  89.8565 270.2816 13.20770697150906"
  },
  {
    "name": "ONEWEB-0678",
    "noradId": "56714",
    "line1": "1 56714U 23068E   26176.52629611  .00000233  00000+0  58387-3 0  9997",
    "line2": "2 56714  87.9013 257.5328 0001799 104.8205 255.3125 13.15548951150383"
  },
  {
    "name": "ONEWEB-0679",
    "noradId": "56715",
    "line1": "1 56715U 23068F   26176.52733577  .00000048  00000+0  91231-4 0  9995",
    "line2": "2 56715  87.9093 227.1139 0002419  84.6261 275.5145 13.16593031152829"
  },
  {
    "name": "ONEWEB-0680",
    "noradId": "56716",
    "line1": "1 56716U 23068G   26176.19539632  .00000004  00000+0 -20943-4 0  9990",
    "line2": "2 56716  87.9255 242.3783 0002576  91.9122 268.2307 13.21824846152157"
  },
  {
    "name": "ONEWEB-0681",
    "noradId": "56717",
    "line1": "1 56717U 23068H   26176.55465674 -.00021215  00000+0 -51614-1 0  9999",
    "line2": "2 56717  87.9262 242.3089 0001869 114.4024 245.7306 13.21704232152190"
  },
  {
    "name": "ONEWEB-0682",
    "noradId": "56718",
    "line1": "1 56718U 23068J   26176.47401147 -.00000066  00000+0 -21047-3 0  9996",
    "line2": "2 56718  87.9008 257.5439 0002528  93.4165 266.7254 13.15548873150543"
  },
  {
    "name": "ONEWEB-0683",
    "noradId": "56719",
    "line1": "1 56719U 23068K   26176.26960519 -.00000069  00000+0 -21606-3 0  9991",
    "line2": "2 56719  87.9008 257.5841 0002277  98.8728 261.2660 13.15549508150486"
  },
  {
    "name": "ONEWEB-0684",
    "noradId": "56720",
    "line1": "1 56720U 23068L   26176.50570356  .00000097  00000+0  22419-3 0  9998",
    "line2": "2 56720  87.9006 257.5270 0002058 138.4730 221.6557 13.15548966150340"
  },
  {
    "name": "ONEWEB-0686",
    "noradId": "56721",
    "line1": "1 56721U 23068M   26176.56376081 -.00000003  00000+0 -41140-4 0  9996",
    "line2": "2 56721  87.9081 227.1291 0002364 102.4154 257.7242 13.16594870152812"
  },
  {
    "name": "ONEWEB-0694",
    "noradId": "56722",
    "line1": "1 56722U 23068N   26176.41809678  .00000118  00000+0  27420-3 0  9993",
    "line2": "2 56722  87.9101 227.1243 0002493  92.9952 267.1465 13.16595144152856"
  },
  {
    "name": "ONEWEB-0696",
    "noradId": "56723",
    "line1": "1 56723U 23068P   26176.46291611  .00000081  00000+0  18129-3 0  9996",
    "line2": "2 56723  87.9002 257.5733 0001619 108.5318 251.5989 13.15547594150454"
  },
  {
    "name": "ONEWEB-0703",
    "noradId": "56724",
    "line1": "1 56724U 23068Q   26176.47240477 -.00000003  00000+0 -41724-4 0  9996",
    "line2": "2 56724  87.8998 257.5524 0001167 104.1710 255.9550 13.15547178150340"
  }
]