OBJECT_NAME,OBJECT_ID,EPOCH,MEAN_MOTION,ECCENTRICITY,INCLINATION,RA_OF_ASC_NODE,ARG_OF_PERICENTER,MEAN_ANOMALY,EPHEMERIS_TYPE,CLASSIFICATION_TYPE,NORAD_CAT_ID,ELEMENT_SET_NO,REV_AT_EPOCH,BSTAR,MEAN_MOTION_DOT,MEAN_MOTION_DDOT
ONEWEB-0578,2023-043X,2026-06-25T10:18:05.757984,13.21826044,.00023205,87.9250,242.3329,93.1986,266.9413,0,U,56067,999,15932,.16977226E-3,.83E-6,0
ONEWEB-0579,2023-043Y,2026-06-25T10:05:58.992288,13.21827255,.00018693,87.9258,242.3320,103.5671,256.5672,0,U,56068,999,15933,.13563803E-3,.69E-6,0
ONEWEB-0581,2023-043Z,2026-06-25T12:14:17.957184,13.16593290,.00018157,87.9091,227.1317,80.3287,279.8049,0,U,56069,999,16005,.16874514E-3,.77E-6,0
ONEWEB-0609,2023-043AA,2026-06-25T13:08:39.309216,13.15550145,.00020549,87.9000,257.5462,101.3016,258.8346,0,U,56070,999,15753,-.12272059E-4,.8E-7,0
ONEWEB-0613,2023-043AB,2026-06-25T11:15:42.322176,13.15547557,.00018862,87.9001,257.5741,107.3462,252.7875,0,U,56071,999,15752,.10864376E-3,.54E-6,0
ONEWEB-0630,2023-043AC,2026-06-25T11:08:52.798272,13.15547264,.00019032,87.9007,257.5470,106.1328,254.0012,0,U,56072,999,15751,.2684915E-5,.14E-6,0
ONEWEB-0632,2023-043AD,2026-06-25T11:02:02.200416,13.15549073,.00018828,87.9001,257.5655,95.8348,264.2997,0,U,56073,999,15751,.13540993E-3,.64E-6,0
ONEWEB-0633,2023-043AE,2026-06-25T10:52:54.471936,13.15547713,.00020309,87.9009,257.5429,112.4489,247.6857,0,U,56074,999,15749,.37559816E-3,.154E-5,0
ONEWEB-0634,2023-043AF,2026-06-25T12:21:53.915040,13.15548836,.00023191,87.8998,257.5702,99.7459,260.3933,0,U,56075,999,15749,.27042387E-3,.115E-5,0
ONEWEB-0635,2023-043AG,2026-06-25T12:15:02.382336,13.15547017,.00018415,87.9009,257.5344,92.9582,267.1759,0,U,56076,999,15752,.20789588E-3,.91E-6,0
ONEWEB-0636,2023-043AH,2026-06-25T04:45:32.436576,13.15549800,.00018995,87.9006,257.6025,93.0086,267.1262,0,U,56077,999,15746,.15667702E-4,.19E-6,0
ONEWEB-0637,2023-043AJ,2026-06-25T11:54:30.840192,13.15549800,.0002186,87.8999,257.5593,93.0979,267.0401,0,U,56078,999,15752,-.48850396E-4,-.6E-7,0
ONEWEB-0647,2023-043AK,2026-06-25T06:19:06.540096,13.15549406,.00018702,87.8998,257.6182,99.3687,260.7655,0,U,56079,999,15748,-.83849438E-4,-.19E-6,0
ONEWEB-0651,2023-043AL,2026-06-25T13:30:20.804256,13.15549760,.0002024,87.8998,257.5519,92.7776,267.3586,0,U,56080,999,15872,-.69369623E-4,-.13E-6,0
ONEWEB-0718,2023-043AM,2026-06-25T11:33:58.677696,13.15546878,.00025179,87.9004,257.5496,104.4362,255.7048,0,U,56081,999,15752,-.29306906E-3,-.97E-6,0
ONEWEB-0561,2023-068A,2026-06-25T12:44:31.073280,13.20773935,.00016529,87.9199,272.7807,95.0645,265.0677,0,U,56710,999,15060,.86493174E-4,.48E-6,0
ONEWEB-0668,2023-068B,2026-06-25T13:27:15.555744,13.16594809,.00025765,87.9089,227.1098,93.2178,266.9247,0,U,56711,999,15288,.4242131E-4,.29E-6,0
ONEWEB-0676,2023-068C,2026-06-25T09:59:47.043744,13.16593226,.00018837,87.9089,227.1445,88.2022,271.9325,0,U,56712,999,15278,.48682012E-4,.31E-6,0
ONEWEB-0677,2023-068D,2026-06-25T12:27:33.621696,13.20770697,.00021674,87.9195,272.7744,89.8565,270.2816,0,U,56713,999,15090,.17468833E-3,.84E-6,0
ONEWEB-0678,2023-068E,2026-06-25T12:37:51.983904,13.15548951,.00017991,87.9013,257.5328,104.8205,255.3125,0,U,56714,999,15038,.58387385E-3,.233E-5,0
ONEWEB-0679,2023-068F,2026-06-25T12:39:21.810528,13.16593031,.00024191,87.9093,227.1139,84.6261,275.5145,0,U,56715,999,15282,.91230588E-4,.48E-6,0
ONEWEB-0680,2023-068G,2026-06-25T04:41:22.242048,13.21824846,.00025763,87.9255,242.3783,91.9122,268.2307,0,U,56716,999,15215,-.2094335E-4,.4E-7,0
ONEWEB-0681,2023-068H,2026-06-25T13:18:42.342336,13.21704232,.00018697,87.9262,242.3089,114.4024,245.7306,0,U,56717,999,15219,-.51613677E-1,-.21215E-3,0
ONEWEB-0682,2023-068J,2026-06-25T11:22:34.591008,13.15548873,.00025288,87.9008,257.5439,93.4165,266.7254,0,U,56718,999,15054,-.21046993E-3,-.66E-6,0
ONEWEB-0683,2023-068K,2026-06-25T06:28:13.888416,13.15549508,.00022779,87.9008,257.5841,98.8728,261.2660,0,U,56719,999,15048,-.21605774E-3,-.69E-6,0
ONEWEB-0684,2023-068L,2026-06-25T12:08:12.787584,13.15548966,.00020582,87.9006,257.5270,138.4730,221.6557,0,U,56720,999,15034,.22418882E-3,.97E-6,0
ONEWEB-0686,2023-068M,2026-06-25T13:31:48.933984,13.16594870,.00023648,87.9081,227.1291,102.4154,257.7242,0,U,56721,999,15281,-.41140463E-4,-.3E-7,0
ONEWEB-0694,2023-068N,2026-06-25T10:02:03.561792,13.16595144,.00024934,87.9101,227.1243,92.9952,267.1465,0,U,56722,999,15285,.27419933E-3,.118E-5,0
ONEWEB-0696,2023-068P,2026-06-25T11:06:35.951904,13.15547594,.0001619,87.9002,257.5733,108.5318,251.5989,0,U,56723,999,15045,.1812888E-3,.81E-6,0
ONEWEB-0703,2023-068Q,2026-06-25T11:20:15.772128,13.15547178,.00011671,87.8998,257.5524,104.1710,255.9550,0,U,56724,999,15034,-.41724224E-4,-.3E-7,0
